FLOCK 4G-15             
1 62678U 25009BX  26068.71779869  .00012647  00000+0  47575-3 0  9991
2 62678  97.4054 151.1927 0003699 316.8208  43.2740 15.27266411121358
STARLINK-34150          
1 63998U 25101E   26068.17269884  .00035860  00000+0  13070-2 0  9995
2 63998  43.0019   1.1076 0000695 271.6630  88.4142 15.27562634 46978
